<?xml version="1.0" encoding="UTF-8"?>
<ndm xmlns:xsi="http://www.w3.org/2001/XMLSchema-instance" xsi:noNamespaceSchemaLocation="https://sanaregistry.org/r/ndmxml_unqualified/ndmxml-2.0.0-master-2.0.xsd">
<omm id="CCSDS_OMM_VERS" version="2.0">
<header><CREATION_DATE/><ORIGINATOR/></header><body><segment><metadata><OBJECT_NAME>ORBCOMM FM115</OBJECT_NAME><OBJECT_ID>2015-081H</OBJECT_ID><CENTER_NAME>EARTH</CENTER_NAME><REF_FRAME>TEME</REF_FRAME><TIME_SYSTEM>UTC</TIME_SYSTEM><MEAN_ELEMENT_THEORY>SGP4</MEAN_ELEMENT_THEORY></metadata><data><meanElements><EPOCH>2024-08-09T20:58:58.684512</EPOCH><MEAN_MOTION>14.60985933</MEAN_MOTION><ECCENTRICITY>.0000163</ECCENTRICITY><INCLINATION>46.9981</INCLINATION><RA_OF_ASC_NODE>78.6928</RA_OF_ASC_NODE><ARG_OF_PERICENTER>107.4023</ARG_OF_PERICENTER><MEAN_ANOMALY>252.6881</MEAN_ANOMALY></meanElements><tleParameters><EPHEMERIS_TYPE>0</EPHEMERIS_TYPE><CLASSIFICATION_TYPE>U</CLASSIFICATION_TYPE><NORAD_CAT_ID>41186</NORAD_CAT_ID><ELEMENT_SET_NO>999</ELEMENT_SET_NO><REV_AT_EPOCH>46222</REV_AT_EPOCH><BSTAR>.60498E-3</BSTAR><MEAN_MOTION_DOT>.2824E-4</MEAN_MOTION_DOT><MEAN_MOTION_DDOT>0</MEAN_MOTION_DDOT></tleParameters></data></segment></body></omm>
<omm id="CCSDS_OMM_VERS" version="2.0">
<header><CREATION_DATE/><ORIGINATOR/></header><body><segment><metadata><OBJECT_NAME>ORBCOMM FM108</OBJECT_NAME><OBJECT_ID>2015-081J</OBJECT_ID><CENTER_NAME>EARTH</CENTER_NAME><REF_FRAME>TEME</REF_FRAME><TIME_SYSTEM>UTC</TIME_SYSTEM><MEAN_ELEMENT_THEORY>SGP4</MEAN_ELEMENT_THEORY></metadata><data><meanElements><EPOCH>2024-08-09T21:45:32.144256</EPOCH><MEAN_MOTION>14.56829411</MEAN_MOTION><ECCENTRICITY>.0002678</ECCENTRICITY><INCLINATION>47.0038</INCLINATION><RA_OF_ASC_NODE>135.7496</RA_OF_ASC_NODE><ARG_OF_PERICENTER>318.4787</ARG_OF_PERICENTER><MEAN_ANOMALY>41.5894</MEAN_ANOMALY></meanElements><tleParameters><EPHEMERIS_TYPE>0</EPHEMERIS_TYPE><CLASSIFICATION_TYPE>U</CLASSIFICATION_TYPE><NORAD_CAT_ID>41187</NORAD_CAT_ID><ELEMENT_SET_NO>999</ELEMENT_SET_NO><REV_AT_EPOCH>46138</REV_AT_EPOCH><BSTAR>.88102E-3</BSTAR><MEAN_MOTION_DOT>.3819E-4</MEAN_MOTION_DOT><MEAN_MOTION_DDOT>0</MEAN_MOTION_DDOT></tleParameters></data></segment></body></omm>
<omm id="CCSDS_OMM_VERS" version="2.0">
<header><CREATION_DATE/><ORIGINATOR/></header><body><segment><metadata><OBJECT_NAME>ORBCOMM FM117</OBJECT_NAME><OBJECT_ID>2015-081K</OBJECT_ID><CENTER_NAME>EARTH</CENTER_NAME><REF_FRAME>TEME</REF_FRAME><TIME_SYSTEM>UTC</TIME_SYSTEM><MEAN_ELEMENT_THEORY>SGP4</MEAN_ELEMENT_THEORY></metadata><data><meanElements><EPOCH>2024-08-09T20:56:27.669408</EPOCH><MEAN_MOTION>14.56815983</MEAN_MOTION><ECCENTRICITY>.0003311</ECCENTRICITY><INCLINATION>46.9999</INCLINATION><RA_OF_ASC_NODE>134.7736</RA_OF_ASC_NODE><ARG_OF_PERICENTER>329.9621</ARG_OF_PERICENTER><MEAN_ANOMALY>30.1074</MEAN_ANOMALY></meanElements><tleParameters><EPHEMERIS_TYPE>0</EPHEMERIS_TYPE><CLASSIFICATION_TYPE>U</CLASSIFICATION_TYPE><NORAD_CAT_ID>41188</NORAD_CAT_ID><ELEMENT_SET_NO>999</ELEMENT_SET_NO><REV_AT_EPOCH>46142</REV_AT_EPOCH><BSTAR>.86541E-3</BSTAR><MEAN_MOTION_DOT>.3747E-4</MEAN_MOTION_DOT><MEAN_MOTION_DDOT>0</MEAN_MOTION_DDOT></tleParameters></data></segment></body></omm>
<omm id="CCSDS_OMM_VERS" version="2.0">
<header><CREATION_DATE/><ORIGINATOR/></header><body><segment><metadata><OBJECT_NAME>ORBCOMM FM116</OBJECT_NAME><OBJECT_ID>2015-081L</OBJECT_ID><CENTER_NAME>EARTH</CENTER_NAME><REF_FRAME>TEME</REF_FRAME><TIME_SYSTEM>UTC</TIME_SYSTEM><MEAN_ELEMENT_THEORY>SGP4</MEAN_ELEMENT_THEORY></metadata><data><meanElements><EPOCH>2024-08-09T17:22:20.983872</EPOCH><MEAN_MOTION>14.56809647</MEAN_MOTION><ECCENTRICITY>.0001813</ECCENTRICITY><INCLINATION>47.0004</INCLINATION><RA_OF_ASC_NODE>225.2932</RA_OF_ASC_NODE><ARG_OF_PERICENTER>23.6090</ARG_OF_PERICENTER><MEAN_ANOMALY>336.4878</MEAN_ANOMALY></meanElements><tleParameters><EPHEMERIS_TYPE>0</EPHEMERIS_TYPE><CLASSIFICATION_TYPE>U</CLASSIFICATION_TYPE><NORAD_CAT_ID>41189</NORAD_CAT_ID><ELEMENT_SET_NO>999</ELEMENT_SET_NO><REV_AT_EPOCH>46021</REV_AT_EPOCH><BSTAR>.34465E-3</BSTAR><MEAN_MOTION_DOT>.139E-4</MEAN_MOTION_DOT><MEAN_MOTION_DDOT>0</MEAN_MOTION_DDOT></tleParameters></data></segment></body></omm>
</ndm>
