ORBCOMM FM115           
1 41186U 15081H   24222.87429033  .00002824  00000+0  60498-3 0  9998
2 41186  46.9981  78.6928 0000163 107.4023 252.6881 14.60985933462222
ORBCOMM FM108           
1 41187U 15081J   24222.90662204  .00003819  00000+0  88102-3 0  9999
2 41187  47.0038 135.7496 0002678 318.4787  41.5894 14.56829411461385
ORBCOMM FM117           
1 41188U 15081K   24222.87254247  .00003747  00000+0  86541-3 0  9995
2 41188  46.9999 134.7736 0003311 329.9621  30.1074 14.56815983461423
ORBCOMM FM116           
1 41189U 15081L   24222.72385398  .00001390  00000+0  34465-3 0  9992
2 41189  47.0004 225.2932 0001813  23.6090 336.4878 14.56809647460210
